ORBCOMM FM114           
1 41179U 15081A   26063.53146720  .00000831  00000+0  21256-3 0  9992
2 41179  47.0042 136.7554 0001250  81.2242 278.8785 14.58720238542476
ORBCOMM FM119           
1 41180U 15081B   26063.11958322  .00001016  00000+0  25220-3 0  9998
2 41180  47.0009  48.0604 0000917 218.6911 141.3909 14.58662737543663
ORBCOMM FM105           
1 41181U 15081C   26063.76501927  .00000386  00000+0  15298-3 0  9998
2 41181  47.0009  75.5032 0001240  15.0633 345.0284 14.45489071538447
ORBCOMM FM110           
1 41182U 15081D   26063.58918367  .00001353  00000+0  32327-3 0  9996
2 41182  47.0014 135.9562 0003526 298.9897  61.0636 14.58723810542353
ORBCOMM FM118           
1 41183U 15081E   26063.55526948  .00001326  00000+0  31771-3 0  9996
2 41183  47.0036 136.4306 0003911 268.1600  91.8838 14.58719732542453
ORBCOMM FM112           
1 41184U 15081F   26063.01028603  .00001040  00000+0  25689-3 0  9997
2 41184  46.9996  47.5080 0000993  53.6338 306.4639 14.58718421543594
ORBCOMM FM113           
1 41185U 15081G   26063.32996754  .00001054  00000+0  25991-3 0  9994
2 41185  47.0013  46.3641 0000578  65.7549 294.3397 14.58720467543627
ORBCOMM FM115           
1 41186U 15081H   26063.48933184  .00001229  00000+0  27093-3 0  9999
2 41186  46.9972 241.0000 0001199 208.9287 151.1534 14.63108811545885
ORBCOMM FM108           
1 41187U 15081J   26062.67618107  .00001299  00000+0  31190-3 0  9995
2 41187  47.0059 320.9947 0002200  59.3085 300.8017 14.58730739544678
ORBCOMM FM117           
1 41188U 15081K   26063.05266201  .00001285  00000+0  30902-3 0  9998
2 41188  47.0022 317.8837 0002524  72.5276 287.5886 14.58723735544774
ORBCOMM FM116           
1 41189U 15081L   26063.30741591  .00001252  00000+0  30193-3 0  9993
2 41189  47.0030  46.4607 0002661 293.9812  66.0795 14.58714866543628
